{
  "type": "FeatureCollection",
  "features": [
    {
      "type": "Feature",
      "properties": {
        "name": "Tamil Nadu"
      },
      "geometry": {
        "type": "Polygon",
        "coordinates": [
          [
            [76.22, 11.66],
            [76.88, 11.53],
            [77.77, 12.28],
            [78.43, 12.63],
            [79.52, 13.11],
            [80.34, 13.56],
            [80.34, 13.06],
            [80.19, 12.56],
            [79.86, 11.93],
            [79.85, 10.87],
            [79.06, 9.94],
            [79.16, 9.24],
            [78.14, 8.78],
            [77.55, 8.08],
            [77.16, 8.35],
            [77.12, 9.00],
            [77.06, 10.37],
            [76.84, 10.84],
            [76.22, 11.66]
          ]
        ]
      }
    }
  ]
}
